ION SCV-017             
1 63230U 25052W   26068.71648816  .00006457  00000+0  24539-3 0  9998
2 63230  97.4016 324.7516 0023746  44.9875 315.3282 15.26881798 54851
STARLINK-35652          
1 66393U 25257P   26068.72225568  .00033843  00000+0  11495-2 0  9999
2 66393  53.1596 217.2148 0000925  95.0031 265.1075 15.30202546 19731
