[{"OBJECT_NAME":"ION SCV-017","OBJECT_ID":"2025-052W","EPOCH":"2026-03-09T17:11:44.577024","MEAN_MOTION":15.26881798,"ECCENTRICITY":0.0023746,"INCLINATION":97.4016,"RA_OF_ASC_NODE":324.7516,"ARG_OF_PERICENTER":44.9875,"MEAN_ANOMALY":315.3282,"EPHEMERIS_TYPE":0,"CLASSIFICATION_TYPE":"U","NORAD_CAT_ID":63230,"ELEMENT_SET_NO":999,"REV_AT_EPOCH":5485,"BSTAR":0.00024539061,"MEAN_MOTION_DOT":6.457e-5,"MEAN_MOTION_DDOT":0},{"OBJECT_NAME":"STARLINK-35652","OBJECT_ID":"2025-257P","EPOCH":"2026-03-09T17:20:02.890752","MEAN_MOTION":15.30202547,"ECCENTRICITY":9.248e-5,"INCLINATION":53.1596,"RA_OF_ASC_NODE":217.2148,"ARG_OF_PERICENTER":95.0031,"MEAN_ANOMALY":265.1075,"EPHEMERIS_TYPE":0,"CLASSIFICATION_TYPE":"U","NORAD_CAT_ID":66393,"ELEMENT_SET_NO":999,"REV_AT_EPOCH":1973,"BSTAR":0.0011494986,"MEAN_MOTION_DOT":0.00033843,"MEAN_MOTION_DDOT":0}]
